ONEWEB-0271             
1 48989U 21060Y   25265.81353962  .00000122  00000+0  28507-3 0  9993
2 48989  87.8972 282.0508 0001552  92.9481 267.1827 13.16595458204480
ONEWEB-0272             
1 48990U 21060Z   25265.53170696 -.00000067  00000+0 -20959-3 0  9998
2 48990  87.8967 282.1344 0001623  86.8462 273.2854 13.16592331204390
ONEWEB-0273             
1 48991U 21060AA  25265.78188869 -.00000054  00000+0 -17572-3 0  9990
2 48991  87.8969 282.0730 0001737  96.8914 263.2414 13.16594275204402
ONEWEB-0274             
1 48992U 21060AB  25265.80721508  .00000126  00000+0  29464-3 0  9998
2 48992  87.8962 282.0985 0001732  79.6499 280.4828 13.16595059204445
ONEWEB-0275             
1 48993U 21060AC  25265.79612799  .00000074  00000+0  15937-3 0  9990
2 48993  87.8970 282.0648 0001751  90.0891 270.0441 13.16594503204376
ONEWEB-0276             
1 48994U 21060AD  25265.75337072  .00000058  00000+0  11701-3 0  9992
2 48994  87.8975 282.0708 0001822  97.4557 262.6781 13.16595811204386
ONEWEB-0277             
1 48995U 21060AE  25265.76594983  .00002912  00000+0  75787-2 0  9994
2 48995  87.8968 282.1006 0001543  89.5115 270.6193 13.16626999204370
ONEWEB-0278             
1 48996U 21060AF  25265.75653427 -.00000029  00000+0 -10866-3 0  9990
2 48996  87.8974 282.0670 0002063  96.1156 264.0210 13.16592444204500
ONEWEB-0279             
1 48997U 21060AG  25265.76445322 -.00000027  00000+0 -10376-3 0  9999
2 48997  87.8973 282.0607 0001516  89.4134 270.7171 13.16593426204436
ONEWEB-0280             
1 48998U 21060AH  25265.55151964  .00000007  00000+0 -15813-4 0  9992
2 48998  87.8969 282.1114 0001759 103.3144 256.8184 13.16593601204346
ONEWEB-0281             
1 48999U 21060AJ  25265.78505640  .00000043  00000+0  79410-4 0  9994
2 48999  87.8968 282.0615 0001859  87.8304 272.3040 13.16593881204441
ONEWEB-0282             
1 49000U 21060AK  25265.73912550  .00000058  00000+0  11834-3 0  9996
2 49000  87.8972 282.0806 0001709  96.2630 263.8695 13.16595468204413
ONEWEB-0283             
1 49001U 21060AL  25265.80402868  .00000097  00000+0  22001-3 0  9992
2 49001  87.8966 282.0696 0001651  92.2038 267.9282 13.16596371204431
ONEWEB-0284             
1 49002U 21060AM  25265.79770889  .00000069  00000+0  14780-3 0  9996
2 49002  87.8980 282.0530 0002046  99.6708 260.4654 13.16595319204419
ONEWEB-0285             
1 49075U 21075A   25265.62033550  .00000324  00000+0  86443-3 0  9990
2 49075  87.8919  43.8146 0001671  99.2857 260.8461 13.12443112200113
ONEWEB-0286             
1 49076U 21075B   25265.67845068  .00000416  00000+0  11204-2 0  9995
2 49076  87.8924  43.8382 0001815  93.1319 267.0017 13.12442924199470
ONEWEB-0287             
1 49077U 21075C   25265.79540259 -.00000046  00000+0 -15140-3 0  9998
2 49077  87.9066  59.0446 0001979  89.7209 270.4150 13.17648018198415
ONEWEB-0288             
1 49078U 21075D   25265.88296313 -.00000318  00000+0 -91965-3 0  9999
2 49078  87.8921  43.7572 0001813 100.5839 259.5494 13.12442647200129
ONEWEB-0289             
1 49079U 21075E   25265.83407258 -.00000041  00000+0 -13835-3 0  9990
2 49079  87.9051  59.0611 0001781 108.0696 252.0629 13.17649014198998
ONEWEB-0290             
1 49080U 21075F   25265.88314864  .00000008  00000+0 -13032-4 0  9999
2 49080  87.9064  59.0066 0001565 115.8523 244.2770 13.17647547198419
ONEWEB-0291             
1 49081U 21075G   25265.79203370  .00000043  00000+0  77955-4 0  9991
2 49081  87.9066  59.0298 0002044  98.5049 261.6314 13.17647861198395
ONEWEB-0293             
1 49082U 21075H   25265.81733735 -.00000041  00000+0 -13765-3 0  9996
2 49082  87.9055  59.0528 0001692  98.6571 261.4752 13.17647128198423
ONEWEB-0294             
1 49083U 21075J   25265.66074180 -.00000081  00000+0 -25989-3 0  9997
2 49083  87.8921  43.8019 0001851 112.9131 247.2194 13.12445397199488
ONEWEB-0295             
1 49084U 21075K   25265.81649708 -.00000084  00000+0 -24952-3 0  9991
2 49084  87.9060  59.0570 0002027  95.6664 264.4699 13.17648416198380
ONEWEB-0296             
1 49085U 21075L   25265.79374906 -.00000438  00000+0 -12531-2 0  9996
2 49085  87.8918  43.7807 0002135 105.0419 255.0946 13.12438950199500
ONEWEB-0297             
1 49086U 21075M   25265.90079642  .00000170  00000+0  43674-3 0  9993
2 49086  87.8916  43.7967 0001734  95.5697 264.5629 13.12445431200127
ONEWEB-0298             
1 49087U 21075N   25265.89678458 -.00000049  00000+0 -16040-3 0  9996
2 49087  87.9065  59.0354 0001661  91.5495 268.5827 13.17647808198425
ONEWEB-0299             
1 49088U 21075P   25265.89834749 -.00000375  00000+0 -99831-3 0  9995
2 49088  87.9065  58.9923 0001957  89.7626 270.3730 13.17641952198405
ONEWEB-0300             
1 49089U 21075Q   25265.81645993 -.00000014  00000+0 -75135-4 0  9991
2 49089  87.8922  43.7671 0001502  85.9977 274.1323 13.12445039200139
ONEWEB-0301             
1 49090U 21075R   25265.80023135 -.00000618  00000+0 -17535-2 0  9998
2 49090  87.8918  43.7744 0001445  83.5541 276.5752 13.12442406199497
ONEWEB-0302             
1 49091U 21075S   25265.63477728 -.00000221  00000+0 -65077-3 0  9996
2 49091  87.8919  43.8138 0001863 107.2867 252.8465 13.12440406199458
ONEWEB-0304             
1 49092U 21075T   25265.79708193 -.00005737  00000+0 -14813-1 0  9994
2 49092  87.9067  59.0434 0001577  95.6918 264.4393 13.17678213198363
ONEWEB-0305             
1 49093U 21075U   25265.71440950  .00000097  00000+0  21754-3 0  9997
2 49093  87.9065  59.0365 0002118  92.0370 268.1004 13.17647848198382
ONEWEB-0308             
1 49094U 21075V   25265.62829874 -.00000008  00000+0 -58368-4 0  9990
2 49094  87.8922  43.8072 0001640  97.0662 263.0653 13.12440418199461
ONEWEB-0309             
1 49095U 21075W   25265.79370854  .00000124  00000+0  28609-3 0  9999
2 49095  87.9065  59.0377 0001849 106.9922 253.1413 13.17649836198360
ONEWEB-0310             
1 49096U 21075X   25265.79536469 -.00000417  00000+0 -11954-2 0  9997
2 49096  87.8915  43.8179 0001723 101.0193 259.1130 13.12440577200117
ONEWEB-0311             
1 49097U 21075Y   25265.80045065  .00000180  00000+0  43034-3 0  9997
2 49097  87.9060  59.0337 0002038  88.6472 271.4893 13.17651393198412
ONEWEB-0312             
1 49098U 21075Z   25265.66377475  .00000011  00000+0 -49907-5 0  9996
2 49098  87.9055  59.0924 0002023  98.0230 262.1131 13.17649837198377
ONEWEB-0313             
1 49099U 21075AA  25265.89651025 -.00000029  00000+0 -10834-3 0  9993
2 49099  87.9052  59.0568 0001800  93.9986 266.1351 13.17650543198399
ONEWEB-0314             
1 49100U 21075AB  25265.71104455 -.00000961  00000+0 -25095-2 0  9996
2 49100  87.9067  59.0343 0002109  96.8781 263.2591 13.17638667198349
ONEWEB-0315             
1 49101U 21075AC  25265.76942551  .00000217  00000+0  56920-3 0  9993
2 49101  87.8917  43.7688 0001902  87.2044 272.9302 13.12442153200092
ONEWEB-0316             
1 49102U 21075AD  25265.77007062  .00000014  00000+0  38993-5 0  9991
2 49102  87.9208  28.5687 0001807  96.3544 263.7794 13.18685084201965
ONEWEB-0317             
1 49103U 21075AE  25265.83917088  .00000415  00000+0  11191-2 0  9990
2 49103  87.8920  43.7699 0001539 126.4086 233.7184 13.12443782200124
ONEWEB-0318             
1 49104U 21075AF  25265.84265967  .00000012  00000+0 -13841-5 0  9995
2 49104  87.9209  28.5411 0001874  93.4935 266.6412 13.18686849201935
ONEWEB-0319             
1 49105U 21075AG  25265.80214855  .00000043  00000+0  76921-4 0  9992
2 49105  87.9059  59.0585 0002067  88.2040 271.9329 13.17649936198390
ONEWEB-0323             
1 49106U 21075AH  25265.75320787  .00000350  00000+0  93786-3 0  9997
2 49106  87.8922  43.7734 0002356  89.1468 270.9931 13.12443256199470
ONEWEB-0329             
1 49107U 21075AJ  25265.81060181 -.00000094  00000+0 -27443-3 0  9998
2 49107  87.9054  59.0604 0001837  94.5495 265.5846 13.17648905198373
ONEWEB-0330             
1 49108U 21075AK  25265.65956180  .00000011  00000+0 -57917-5 0  9993
2 49108  87.9058  59.0944 0001864 100.1844 259.9498 13.17648745198391
ONEWEB-0292             
1 49186U 21083A   25265.55366431 -.00000205  00000+0 -59510-3 0  9996
2 49186  87.9044  13.4372 0001873  96.6455 263.4888 13.13468719195799
ONEWEB-0303             
1 49187U 21083B   25265.83935296 -.00000050  00000+0 -15941-3 0  9997
2 49187  87.9208  28.5419 0001878  94.8326 265.3021 13.18684282194747
ONEWEB-0306             
1 49188U 21083C   25265.75358348  .00000029  00000+0  40656-4 0  9992
2 49188  87.9208  28.5448 0001627 104.8374 255.2938 13.18684616194776
ONEWEB-0307             
1 49189U 21083D   25265.77626821 -.00000130  00000+0 -39045-3 0  9993
2 49189  87.9032  13.3896 0001781 110.9770 249.1550 13.13469468195820
ONEWEB-0320             
1 49190U 21083E   25265.83608178 -.00002001  00000+0 -51111-2 0  9993
2 49190  87.9202  28.5553 0001698  96.2856 263.8470 13.18669111194743
ONEWEB-0321             
1 49191U 21083F   25265.55218766 -.00000035  00000+0 -11921-3 0  9994
2 49191  87.9258 327.7959 0001676 106.8351 253.2967 13.20771636201509
ONEWEB-0322             
1 49192U 21083G   25265.77203715 -.00000028  00000+0 -11231-3 0  9993
2 49192  87.9044  13.3879 0001466 112.6543 247.4742 13.13467347195812
ONEWEB-0324             
1 49193U 21083H   25265.89873967 -.00000029  00000+0 -10680-3 0  9997
2 49193  87.9205  28.5233 0001860 102.2421 257.8919 13.18686113194776
ONEWEB-0325             
1 49194U 21083J   25265.90203833  .00000011  00000+0 -50122-5 0  9996
2 49194  87.9205  28.5403 0001666  99.5382 260.5939 13.18684194194785
ONEWEB-0326             
1 49195U 21083K   25265.84114559  .00000008  00000+0 -12364-4 0  9997
2 49195  87.9207  28.5404 0001892  89.6045 270.5304 13.18686037194769
ONEWEB-0327             
1 49196U 21083L   25265.84086707 -.00000011  00000+0 -61882-4 0  9995
2 49196  87.9198  28.5664 0001837  86.9616 273.1726 13.18683978194780
